[
    {
        "Altitude(m)": 554113.7398056745,
        "Argument of Periapsis(deg)": 0.026491964442854003,
        "Eccentricity": 0.0,
        "Inclination(deg)": 53.0,
        "Latitude(deg)": 1.065867377729137,
        "Longitude(deg)": 166.01707992673903,
        "Mean Anomaly(deg)": 178.54827147031034,
        "RAAN(deg)": 89.96057347411208,
        "Satellite Name": "Starlink Shell 1 404",
        "Satellite Number": 404,
        "Semi-Major Axis(m)": 6931778.249405717,
        "Time(s)": 760
    },
    {
        "Altitude(m)": 554174.588836719,
        "Argument of Periapsis(deg)": 0.02684054292236524,
        "Eccentricity": 0.0,
        "Inclination(deg)": 53.0,
        "Latitude(deg)": 0.5619423146274235,
        "Longitude(deg)": 166.35253534170602,
        "Mean Anomaly(deg)": 179.17510267386703,
        "RAAN(deg)": 89.96005470403459,
        "Satellite Name": "Starlink Shell 1 404",
        "Satellite Number": 404,
        "Semi-Major Axis(m)": 6931778.249405717,
        "Time(s)": 770
    },
    {
        "Altitude(m)": 554238.2421141366,
        "Argument of Periapsis(deg)": 0.027189121401876473,
        "Eccentricity": 0.0,
        "Inclination(deg)": 53.0,
        "Latitude(deg)": 0.058001284945995275,
        "Longitude(deg)": 166.68791912485915,
        "Mean Anomaly(deg)": 179.80193387742378,
        "RAAN(deg)": 89.95953593395711,
        "Satellite Name": "Starlink Shell 1 404",
        "Satellite Number": 404,
        "Semi-Major Axis(m)": 6931778.249405717,
        "Time(s)": 780
    },
    {
        "Altitude(m)": 554304.692479493,
        "Argument of Periapsis(deg)": 0.02753769988138771,
        "Eccentricity": 0.0,
        "Inclination(deg)": 53.0,
        "Latitude(deg)": -0.4459328144840205,
        "Longitude(deg)": 167.0232893120485,
        "Mean Anomaly(deg)": 180.42876508098053,
        "RAAN(deg)": 89.95901716387965,
        "Satellite Name": "Starlink Shell 1 404",
        "Satellite Number": 404,
        "Semi-Major Axis(m)": 6931778.249405717,
        "Time(s)": 790
    },
    {
        "Altitude(m)": 554373.931419264,
        "Argument of Periapsis(deg)": 0.02788627836089895,
        "Eccentricity": 0.0,
        "Inclination(deg)": 53.0,
        "Latitude(deg)": -0.9498370919609758,
        "Longitude(deg)": 167.35870342625282,
        "Mean Anomaly(deg)": 181.05559628453722,
        "RAAN(deg)": 89.95849839380217,
        "Satellite Name": "Starlink Shell 1 404",
        "Satellite Number": 404,
        "Semi-Major Axis(m)": 6931778.249405717,
        "Time(s)": 800
    },
    {
        "Altitude(m)": 554445.9490662976,
        "Argument of Periapsis(deg)": 0.02823485684041019,
        "Eccentricity": 0.0,
        "Inclination(deg)": 53.0,
        "Latitude(deg)": -1.4536886492372485,
        "Longitude(deg)": 167.694219007094,
        "Mean Anomaly(deg)": 181.6824274880939,
        "RAAN(deg)": 89.9579796237247,
        "Satellite Name": "Starlink Shell 1 404",
        "Satellite Number": 404,
        "Semi-Major Axis(m)": 6931778.249405717,
        "Time(s)": 810
    },
    {
        "Altitude(m)": 554520.7342020014,
        "Argument of Periapsis(deg)": 0.028583435319921423,
        "Eccentricity": 0.0,
        "Inclination(deg)": 53.0,
        "Latitude(deg)": -1.9574645698357385,
        "Longitude(deg)": 168.0298941403513,
        "Mean Anomaly(deg)": 182.30925869165063,
        "RAAN(deg)": 89.95746085364723,
        "Satellite Name": "Starlink Shell 1 404",
        "Satellite Number": 404,
        "Semi-Major Axis(m)": 6931778.249405717,
        "Time(s)": 820
    },
    {
        "Altitude(m)": 554598.2742591697,
        "Argument of Periapsis(deg)": 0.028932013799432665,
        "Eccentricity": 0.0,
        "Inclination(deg)": 53.0,
        "Latitude(deg)": -2.461141907344998,
        "Longitude(deg)": 168.36578647461212,
        "Mean Anomaly(deg)": 182.9360898952074,
        "RAAN(deg)": 89.95694208356976,
        "Satellite Name": "Starlink Shell 1 404",
        "Satellite Number": 404,
        "Semi-Major Axis(m)": 6931778.249405717,
        "Time(s)": 830
    },
    {
        "Altitude(m)": 554678.5553255099,
        "Argument of Periapsis(deg)": 0.029280592278943897,
        "Eccentricity": 0.0,
        "Inclination(deg)": 53.0,
        "Latitude(deg)": -2.9646976736868345,
        "Longitude(deg)": 168.70195375081266,
        "Mean Anomaly(deg)": 183.56292109876406,
        "RAAN(deg)": 89.95642331349228,
        "Satellite Name": "Starlink Shell 1 404",
        "Satellite Number": 404,
        "Semi-Major Axis(m)": 6931778.249405717,
        "Time(s)": 840
    },
    {
        "Altitude(m)": 554761.5621478367,
        "Argument of Periapsis(deg)": 0.029629170758455132,
        "Eccentricity": 0.0,
        "Inclination(deg)": 53.0,
        "Latitude(deg)": -3.468108827343226,
        "Longitude(deg)": 169.03845433180302,
        "Mean Anomaly(deg)": 184.1897523023208,
        "RAAN(deg)": 89.95590454341482,
        "Satellite Name": "Starlink Shell 1 404",
        "Satellite Number": 404,
        "Semi-Major Axis(m)": 6931778.249405717,
        "Time(s)": 850
    },
    {
        "Altitude(m)": 554847.278136917,
        "Argument of Periapsis(deg)": 0.02997774923796637,
        "Eccentricity": 0.0,
        "Inclination(deg)": 53.0,
        "Latitude(deg)": -3.971352261526196,
        "Longitude(deg)": 169.37534605097227,
        "Mean Anomaly(deg)": 184.81658350587747,
        "RAAN(deg)": 89.95538577333734,
        "Satellite Name": "Starlink Shell 1 404",
        "Satellite Number": 404,
        "Semi-Major Axis(m)": 6931778.249405717,
        "Time(s)": 860
    },
    {
        "Altitude(m)": 554935.6853730362,
        "Argument of Periapsis(deg)": 0.030326327717477602,
        "Eccentricity": 0.0,
        "Inclination(deg)": 53.0,
        "Latitude(deg)": -4.4744047922898655,
        "Longitude(deg)": 169.71268758236886,
        "Mean Anomaly(deg)": 185.44341470943417,
        "RAAN(deg)": 89.95486700325986,
        "Satellite Name": "Starlink Shell 1 404",
        "Satellite Number": 404,
        "Semi-Major Axis(m)": 6931778.249405717,
        "Time(s)": 870
    },
    {
        "Altitude(m)": 555026.7646121607,
        "Argument of Periapsis(deg)": 0.030674906196988847,
        "Eccentricity": 0.0,
        "Inclination(deg)": 53.0,
        "Latitude(deg)": -4.9772431465615545,
        "Longitude(deg)": 170.05053728940905,
        "Mean Anomaly(deg)": 186.07024591299097,
        "RAAN(deg)": 89.9543482331824,
        "Satellite Name": "Starlink Shell 1 404",
        "Satellite Number": 404,
        "Semi-Major Axis(m)": 6931778.249405717,
        "Time(s)": 880
    },
    {
        "Altitude(m)": 555120.4952928227,
        "Argument of Periapsis(deg)": 0.031023484676500086,
        "Eccentricity": 0.0,
        "Inclination(deg)": 53.0,
        "Latitude(deg)": -5.479843950089303,
        "Longitude(deg)": 170.38895375460774,
        "Mean Anomaly(deg)": 186.69707711654766,
        "RAAN(deg)": 89.95382946310492,
        "Satellite Name": "Starlink Shell 1 404",
        "Satellite Number": 404,
        "Semi-Major Axis(m)": 6931778.249405717,
        "Time(s)": 890
    },
    {
        "Altitude(m)": 555216.8555436335,
        "Argument of Periapsis(deg)": 0.03137206315601132,
        "Eccentricity": 0.0,
        "Inclination(deg)": 53.0,
        "Latitude(deg)": -5.982183715292212,
        "Longitude(deg)": 170.7279963093673,
        "Mean Anomaly(deg)": 187.32390832010435,
        "RAAN(deg)": 89.95331069302745,
        "Satellite Name": "Starlink Shell 1 404",
        "Satellite Number": 404,
        "Semi-Major Axis(m)": 6931778.249405717,
        "Time(s)": 900
    },
    {
        "Altitude(m)": 555315.8221914466,
        "Argument of Periapsis(deg)": 0.03172064163552255,
        "Eccentricity": 0.0,
        "Inclination(deg)": 53.0,
        "Latitude(deg)": -6.484238828997448,
        "Longitude(deg)": 171.0677240509548,
        "Mean Anomaly(deg)": 187.95073952366107,
        "RAAN(deg)": 89.95279192294998,
        "Satellite Name": "Starlink Shell 1 404",
        "Satellite Number": 404,
        "Semi-Major Axis(m)": 6931778.249405717,
        "Time(s)": 910
    },
    {
        "Altitude(m)": 555417.3707701998,
        "Argument of Periapsis(deg)": 0.0320692201150338,
        "Eccentricity": 0.0,
        "Inclination(deg)": 53.0,
        "Latitude(deg)": -6.985985540059311,
        "Longitude(deg)": 171.4081963724214,
        "Mean Anomaly(deg)": 188.57757072721776,
        "RAAN(deg)": 89.95227315287251,
        "Satellite Name": "Starlink Shell 1 404",
        "Satellite Number": 404,
        "Semi-Major Axis(m)": 6931778.249405717,
        "Time(s)": 920
    },
    {
        "Altitude(m)": 555521.4755303754,
        "Argument of Periapsis(deg)": 0.032417798594545036,
        "Eccentricity": 0.0,
        "Inclination(deg)": 53.0,
        "Latitude(deg)": -7.487399946846052,
        "Longitude(deg)": 171.74947349259438,
        "Mean Anomaly(deg)": 189.20440193077448,
        "RAAN(deg)": 89.95175438279503,
        "Satellite Name": "Starlink Shell 1 404",
        "Satellite Number": 404,
        "Semi-Major Axis(m)": 6931778.249405717,
        "Time(s)": 930
    },
    {
        "Altitude(m)": 555628.1094491136,
        "Argument of Periapsis(deg)": 0.03276637707405627,
        "Eccentricity": 0.0,
        "Inclination(deg)": 53.0,
        "Latitude(deg)": -7.98845798457902,
        "Longitude(deg)": 172.09161547327116,
        "Mean Anomaly(deg)": 189.83123313433126,
        "RAAN(deg)": 89.95123561271757,
        "Satellite Name": "Starlink Shell 1 404",
        "Satellite Number": 404,
        "Semi-Major Axis(m)": 6931778.249405717,
        "Time(s)": 940
    }
]